COMMENT,ORIGINATOR,NORAD_CAT_ID,OBJECT_NAME,OBJECT_TYPE,CLASSIFICATION_TYPE,INTLDES,EPOCH,EPOCH_MICROSECONDS,MEAN_MOTION,ECCENTRICITY,INCLINATION,RA_OF_ASC_NODE,ARG_OF_PERICENTER,MEAN_ANOMALY,EPHEMERIS_TYPE,ELEMENT_SET_NO,REV_AT_EPOCH,BSTAR,MEAN_MOTION_DOT,MEAN_MOTION_DDOT,FILE,TLE_LINE0,TLE_LINE1,TLE_LINE2,OBJECT_ID,OBJECT_NUMBER,SEMIMAJOR_AXIS,PERIOD,APOGEE,PERIGEE,DECAYED
"GENERATED VIA SPACETRACK.ORG API","18 SPCS","55092","SPACEBEE-166","PAYLOAD","U","23001CM","2023-04-20 03:33:51","893856","15.18266752","0.0017206","97.4819","170.857","200.9257","159.1275","0","999","1629","0.0011183","0.00022984","0","3890983","0 SPACEBEE-166","1 55092U 23001CM  23110.14851729  .00022984  00000-0  11183-2 0  9992","2 55092  97.4819 170.8570 0017206 200.9257 159.1275 15.18266752 16291","2023-001CM","55092","6889.216","94.845","522.934","499.227","0"
"GENERATED VIA SPACETRACK.ORG API","18 SPCS","55092","SPACEBEE-166","PAYLOAD","U","23001CM","2023-04-20 17:48:00","460800","15.18294452","0.00172","97.4817","171.4439","199.1935","160.8653","0","999","1638","0.0010795","0.000222","0","3891109","0 SPACEBEE-166","1 55092U 23001CM  23110.74167200  .00022200  00000-0  10795-2 0  9991","2 55092  97.4817 171.4439 0017200 199.1935 160.8653 15.18294452 16383","2023-001CM","55092","6889.132","94.843","522.846","499.148","0"
"GENERATED VIA SPACETRACK.ORG API","18 SPCS","55092","SPACEBEE-166","PAYLOAD","U","23001CM","2023-04-21 03:17:25","667232","15.1831003","0.0017257","97.4813","171.8352","198.0836","161.9786","0","999","1644","0.0010119","0.00020811","0","3891529","0 SPACEBEE-166","1 55092U 23001CM  23111.13710263  .00020811  00000-0  10119-2 0  9994","2 55092  97.4813 171.8352 0017257 198.0836 161.9786 15.18310030 16444","2023-001CM","55092","6889.085","94.842","522.838","499.061","0"
"GENERATED VIA SPACETRACK.ORG API","18 SPCS","55092","SPACEBEE-166","PAYLOAD","U","23001CM","2023-04-21 17:31:32","832768","15.18335881","0.001735","97.4812","172.4218","196.1714","163.8969","0","999","1653","0.0011206","0.00023079","0","3892042","0 SPACEBEE-166","1 55092U 23001CM  23111.73024112  .00023079  00000-0  11206-2 0  9998","2 55092  97.4812 172.4218 0017350 196.1714 163.8969 15.18335881 16534","2023-001CM","55092","6889.007","94.841","522.824","498.919","0"
"GENERATED VIA SPACETRACK.ORG API","18 SPCS","55092","SPACEBEE-166","PAYLOAD","U","23001CM","2023-04-22 03:00:57","60288","15.18355021","0.0017304","97.481","172.8132","195.0502","165.0219","0","999","1659","0.0011591","0.0002389","0","3892071","0 SPACEBEE-166","1 55092U 23001CM  23112.12566042  .00023890  00000-0  11591-2 0  9993","2 55092  97.4810 172.8132 0017304 195.0502 165.0219 15.18355021 16599","2023-001CM","55092","6888.949","94.839","522.734","498.893","0"
"GENERATED VIA SPACETRACK.ORG API","18 SPCS","55092","SPACEBEE-166","PAYLOAD","U","23001CM","2023-04-23 02:44:25","950336","15.1839877","0.0017436","97.4812","173.7911","191.8449","168.2377","0","999","1674","0.0010864","0.00022412","0","3892621","0 SPACEBEE-166","1 55092U 23001CM  23113.11418924  .00022412  00000-0  10864-2 0  9999","2 55092  97.4812 173.7911 0017436 191.8449 168.2377 15.18398770 16741","2023-001CM","55092","6888.816","94.837","522.693","498.670","0"
"GENERATED VIA SPACETRACK.ORG API","18 SPCS","55092","SPACEBEE-166","PAYLOAD","U","23001CM","2023-04-23 02:44:25","950336","15.1839877","0.0017436","97.4812","173.7911","191.8449","168.2377","0","999","1674","0.0010864","0.00022412","0","3892688","0 SPACEBEE-166","1 55092U 23001CM  23113.11418924  .00022412  00000-0  10864-2 0  9999","2 55092  97.4812 173.7911 0017436 191.8449 168.2377 15.18398770 16741","2023-001CM","55092","6888.816","94.837","522.693","498.670","0"
"GENERATED VIA SPACETRACK.ORG API","18 SPCS","55092","SPACEBEE-166","PAYLOAD","U","23001CM","2023-04-23 21:43:11","369280","15.18437764","0.0017476","97.4809","174.5739","188.4331","171.6612","0","999","1686","0.0014177","0.00029328","0","3893330","0 SPACEBEE-166","1 55092U 23001CM  23113.90499270  .00029328  00000-0  14177-2 0  9993","2 55092  97.4809 174.5739 0017476 188.4331 171.6612 15.18437764 16860","2023-001CM","55092","6888.698","94.834","522.602","498.525","0"
"GENERATED VIA SPACETRACK.ORG API","18 SPCS","55092","SPACEBEE-166","PAYLOAD","U","23001CM","2023-04-25 03:46:07","665888","15.1853019","0.0017555","97.4809","175.8129","184.1629","175.9462","0","999","1705","0.0010672","0.00022099","0","3893769","0 SPACEBEE-166","1 55092U 23001CM  23115.15703317  .00022099  00000-0  10672-2 0  9996","2 55092  97.4809 175.8129 0017555 184.1629 175.9462 15.18530190 17057","2023-001CM","55092","6888.419","94.829","522.377","498.191","0"
"GENERATED VIA SPACETRACK.ORG API","18 SPCS","55092","SPACEBEE-166","PAYLOAD","U","23001CM","2023-04-25 05:21:00","993024","15.18533655","0.0017554","97.4808","175.8783","183.9818","176.1279","0","999","1706","0.0010358","0.00021447","0","3894092","0 SPACEBEE-166","1 55092U 23001CM  23115.22292816  .00021447  00000-0  10358-2 0  9998","2 55092  97.4808 175.8783 0017554 183.9818 176.1279 15.18533655 17067","2023-001CM","55092","6888.408","94.828","522.365","498.182","0"
"GENERATED VIA SPACETRACK.ORG API","18 SPCS","55092","SPACEBEE-166","PAYLOAD","U","23001CM","2023-04-26 09:48:59","830848","15.18569486","0.0017666","97.4807","177.0518","180.2223","179.9006","0","999","1724","0.00075025","0.0001552","0","3894260","0 SPACEBEE-166","1 55092U 23001CM  23116.40902582  .00015520  00000-0  75025-3 0  9995","2 55092  97.4807 177.0518 0017666 180.2223 179.9006 15.18569486 17240","2023-001CM","55092","6888.300","94.826","522.334","497.996","0"
"GENERATED VIA SPACETRACK.ORG API","18 SPCS","55092","SPACEBEE-166","PAYLOAD","U","23001CM","2023-04-26 17:43:25","771872","15.18580146","0.0017663","97.4803","177.3777","178.8721","181.2556","0","999","1729","0.00076969","0.0001593","0","3894261","0 SPACEBEE-166","1 55092U 23001CM  23116.73849273  .00015930  00000-0  76969-3 0  9991","2 55092  97.4803 177.3777 0017663 178.8721 181.2556 15.18580146 17296","2023-001CM","55092","6888.268","94.825","522.300","497.966","0"
"GENERATED VIA SPACETRACK.ORG API","18 SPCS","55092","SPACEBEE-166","PAYLOAD","U","23001CM","2023-04-27 09:32:16","896192","15.18604816","0.0017743","97.4803","178.0295","176.8977","183.2371","0","999","1739","0.00089909","0.0001864","0","3894751","0 SPACEBEE-166","1 55092U 23001CM  23117.39741778  .00018640  00000-0  89909-3 0  9994","2 55092  97.4803 178.0295 0017743 176.8977 183.2371 15.18604816 17398","2023-001CM","55092","6888.193","94.824","522.280","497.837","0"
"GENERATED VIA SPACETRACK.ORG API","18 SPCS","55092","SPACEBEE-166","PAYLOAD","U","23001CM","2023-04-28 02:56:00","23136","15.1863713","0.0017734","97.4805","178.7467","174.7338","185.4086","0","999","1750","0.0010689","0.00022205","0","3895259","0 SPACEBEE-166","1 55092U 23001CM  23118.12222249  .00022205  00000-0  10689-2 0  9993","2 55092  97.4805 178.7467 0017734 174.7338 185.4086 15.18637130 17501","2023-001CM","55092","6888.096","94.822","522.176","497.745","0"
"GENERATED VIA SPACETRACK.ORG API","18 SPCS","55092","SPACEBEE-166","PAYLOAD","U","23001CM","2023-04-28 09:15:31","782528","15.18644329","0.0017742","97.4806","179.0074","173.4581","186.6889","0","999","1754","0.00090919","0.00018872","0","3895770","0 SPACEBEE-166","1 55092U 23001CM  23118.38578452  .00018872  00000-0  90919-3 0  9991","2 55092  97.4806 179.0074 0017742 173.4581 186.6889 15.18644329 17541","2023-001CM","55092","6888.074","94.821","522.160","497.718","0"
"GENERATED VIA SPACETRACK.ORG API","18 SPCS","55092","SPACEBEE-166","PAYLOAD","U","23001CM","2023-04-29 04:14:06","50688","15.18676991","0.0017785","97.481","179.7902","170.7391","189.4174","0","999","1766","0.00090211","0.00018743","0","3896152","0 SPACEBEE-166","1 55092U 23001CM  23119.17645892  .00018743  00000-0  90211-3 0  9994","2 55092  97.4810 179.7902 0017785 170.7391 189.4174 15.18676991 17660","2023-001CM","55092","6887.975","94.819","522.090","497.590","0"
"GENERATED VIA SPACETRACK.ORG API","18 SPCS","55092","SPACEBEE-166","PAYLOAD","U","23001CM","2023-04-29 04:14:06","50688","15.18676991","0.0017785","97.481","179.7902","170.7391","189.4174","0","999","1766","0.00090211","0.00018743","0","3896517","0 SPACEBEE-166","1 55092U 23001CM  23119.17645892  .00018743  00000-0  90211-3 0  9994","2 55092  97.4810 179.7902 0017785 170.7391 189.4174 15.18676991 17660","2023-001CM","55092","6887.975","94.819","522.090","497.590","0"
"GENERATED VIA SPACETRACK.ORG API","18 SPCS","55092","SPACEBEE-166","PAYLOAD","U","23001CM","2023-04-30 03:57:16","845120","15.18717512","0.0017865","97.4812","180.7683","167.2913","192.8775","0","999","1781","0.00090243","0.00018772","0","3897442","0 SPACEBEE-166","1 55092U 23001CM  23120.16477830  .00018772  00000-0  90243-3 0  9997","2 55092  97.4812 180.7683 0017865 167.2913 192.8775 15.18717512 17817","2023-001CM","55092","6887.853","94.817","522.023","497.412","0"
"GENERATED VIA SPACETRACK.ORG API","18 SPCS","55092","SPACEBEE-166","PAYLOAD","U","23001CM","2023-04-30 18:11:10","285152","15.18738862","0.0017937","97.481","181.3551","165.2837","194.8923","0","999","1790","0.00082731","0.00017211","0","3897630","0 SPACEBEE-166","1 55092U 23001CM  23120.75775793  .00017211  00000-0  82731-3 0  9991","2 55092  97.4810 181.3551 0017937 165.2837 194.8923 15.18738862 17907","2023-001CM","55092","6887.788","94.816","522.008","497.298","0"
"GENERATED VIA SPACETRACK.ORG API","18 SPCS","55092","SPACEBEE-166","PAYLOAD","U","23001CM","2023-05-01 03:40:25","537440","15.18753142","0.0017923","97.4809","181.7465","163.9107","196.27","0","999","1796","0.00081713","0.00017005","0","3898258","0 SPACEBEE-166","1 55092U 23001CM  23121.15307335  .00017005  00000-0  81713-3 0  9999","2 55092  97.4809 181.7465 0017923 163.9107 196.2700 15.18753142 17966","2023-001CM","55092","6887.745","94.815","521.955","497.265","0"
